NORAD_CAT_ID,OBJECT_NAME,OBJECT_TYPE,EPOCH,MEAN_MOTION,ECCENTRICITY,INCLINATION,RA_OF_ASC_NODE,ARG_OF_PERICENTER,MEAN_ANOMALY,BSTAR,MEAN_MOTION_DOT,MEAN_MOTION_DDOT,TLE_LINE0,TLE_LINE1,TLE_LINE2,SEMIMAJOR_AXIS,PERIOD,APOGEE,PERIGEE,DECAYED
50177.0,STARLINK-3282,PAYLOAD,2022-04-23 14:00:01,15.08861365,0.0002535,53.2153,126.2721,31.3772,136.1437,-0.0026245,-0.00041842,0.0,0 STARLINK-3282,1 50177U 21125X   22113.58334491 -.00041842  00000-0 -26245-2 0  9999,2 50177  53.2153 126.2721 0002535  31.3772 136.1437 15.08861365  3562,6917.815,95.436,541.434,537.9259999999998,0.0
50177.0,STARLINK-3282,PAYLOAD,2022-04-24 06:00:00,15.08837784,0.0002505,53.2155,123.2792,33.5846,157.1194,-0.0011279,-0.00018194,0.0,0 STARLINK-3282,1 50177U 21125X   22114.25001157 -.00018194  00000-0 -11279-2 0  9999,2 50177  53.2155 123.2792 0002505  33.5846 157.1194 15.08837784 22430,6917.887,95.438,541.485,538.019,0.0
50177.0,STARLINK-3282,PAYLOAD,2022-04-24 14:00:01,15.08840696,0.0002593,53.2154,121.7829,31.8436,170.4425,-0.00024112,-4.124e-05,0.0,0 STARLINK-3282,1 50177U 21125X   22114.58334491 -.00004124  00000-0 -24112-3 0  9994,2 50177  53.2154 121.7829 0002593  31.8436 170.4425 15.08840696  3593,6917.878000000002,95.438,541.5369999999998,537.9490000000002,0.0
50177.0,STARLINK-3282,PAYLOAD,2022-04-24 22:00:00,15.08833689,0.0002402,53.2156,120.2849,35.1563,178.7301,0.00047584,7.292e-05,0.0,0 STARLINK-3282,1 50177U 21125X   22114.91667824  .00007292  00000-0  47584-3 0  9995,2 50177  53.2156 120.2849 0002402  35.1563 178.7301 15.08833689 22531,6917.9,95.438,541.4259999999998,538.1030000000002,0.0
50177.0,STARLINK-3282,PAYLOAD,2022-04-25 14:00:01,15.08834702,0.0002624,53.2156,117.2936,31.8911,205.1583,-0.00087663,-0.00014212,0.0,0 STARLINK-3282,1 50177U 21125X   22115.58334491 -.00014212  00000-0 -87663-3 0  9994,2 50177  53.2156 117.2936 0002624  31.8911 205.1583 15.08834702 22635,6917.897,95.438,541.577,537.946,0.0
50177.0,STARLINK-3282,PAYLOAD,2022-04-25 22:00:00,15.08813752,0.0002471,53.2158,115.7956,35.9823,212.6585,0.0026787,0.00042572,0.0,0 STARLINK-3282,1 50177U 21125X   22115.91667824  .00042572  00000-0  26787-2 0  9997,2 50177  53.2158 115.7956 0002471  35.9823 212.6585 15.08813752  3602,6917.9609999999975,95.439,541.535,538.116,0.0
50177.0,STARLINK-3282,PAYLOAD,2022-04-26 06:00:00,15.08844826,0.0002675,53.2159,114.3007,35.1138,225.1147,-0.00055157,-9.058e-05,0.0,0 STARLINK-3282,1 50177U 21125X   22116.25001157 -.00009058  00000-0 -55157-3 0  9994,2 50177  53.2159 114.3007 0002675  35.1138 225.1147 15.08844826 22736,6917.866,95.437,541.581,537.88,0.0
50177.0,STARLINK-3282,PAYLOAD,2022-04-26 14:00:01,15.08859928,0.0002678,53.2159,112.8041,33.9742,237.9064,-0.0013919,-0.00022386,0.0,0 STARLINK-3282,1 50177U 21125X   22116.58335648 -.00022386  00000-0 -13919-2 0  9993,2 50177  53.2159 112.8041 0002678  33.9742 237.9064 15.08859928  3598,6917.819,95.436,541.5369999999998,537.832,0.0
50177.0,STARLINK-3282,PAYLOAD,2022-04-26 22:00:00,15.08839488,0.0002488,53.2162,111.3061,37.207,246.2264,9.378e-05,1.204e-05,0.0,0 STARLINK-3282,1 50177U 21125X   22116.91667824  .00001204  00000-0  93780-4 0  9994,2 50177  53.2162 111.3061 0002488  37.2070 246.2264 15.08839488  3569,6917.882,95.438,541.4680000000002,538.026,0.0
50177.0,STARLINK-3282,PAYLOAD,2022-04-27 14:00:01,15.08853652,0.000265,53.2159,108.3145,34.2126,272.4605,-0.0016654,-0.00026707,0.0,0 STARLINK-3282,1 50177U 21125X   22117.58335648 -.00026707  00000-0 -16654-2 0  9994,2 50177  53.2159 108.3145 0002650  34.2126 272.4605 15.08853652 22935,6917.839,95.437,541.5369999999998,537.87,0.0
50177.0,STARLINK-3282,PAYLOAD,2022-04-28 06:00:00,15.08835433,0.0002617,53.2162,105.3221,35.0277,294.7943,-0.00043052,-7.133e-05,0.0,0 STARLINK-3282,1 50177U 21125X   22118.25001157 -.00007133  00000-0 -43052-3 0  9999,2 50177  53.2162 105.3221 0002617  35.0277 294.7943 15.08835433 23031,6917.894,95.438,541.57,537.9490000000002,0.0
50177.0,STARLINK-3282,PAYLOAD,2022-04-28 14:00:01,15.08855533,0.0002563999999999,53.2159,103.825,34.5891,306.8155,-0.0015706,-0.0002521,0.0,0 STARLINK-3282,1 50177U 21125X   22118.58334491 -.00025210  00000-0 -15706-2 0  9995,2 50177  53.2159 103.8250 0002564  34.5891 306.8155 15.08855533  3568,6917.833000000001,95.437,541.472,537.924,0.0
50177.0,STARLINK-3282,PAYLOAD,2022-04-28 22:00:01,15.08845059,0.0002371,53.2162,102.3274,38.5283,314.5437,0.00112,0.00017584,0.0,0 STARLINK-3282,1 50177U 21125X   22118.91668981  .00017584  00000-0  11200-2 0  9994,2 50177  53.2162 102.3274 0002371  38.5283 314.5437 15.08845059 23133,6917.865,95.437,541.37,538.09,0.0
50177.0,STARLINK-3282,PAYLOAD,2022-04-29 14:00:01,15.08860658,0.0002465,53.2157,99.3355,34.6243,341.5835,-0.0023526,-0.00037558,0.0,0 STARLINK-3282,1 50177U 21125X   22119.58334491 -.00037558  00000-0 -23526-2 0  9993,2 50177  53.2157  99.3355 0002465  34.6243 341.5835 15.08860658 23234,6917.816999999999,95.436,541.387,537.977,0.0
50177.0,STARLINK-3282,PAYLOAD,2022-04-29 22:00:00,15.08828868,0.0002288,53.2159,97.8382,38.3925,349.4227,0.00082391,0.00012845,0.0,0 STARLINK-3282,1 50177U 21125X   22119.91667824  .00012845  00000-0  82391-3 0  9995,2 50177  53.2159  97.8382 0002288  38.3925 349.4227 15.08828868  3608,6917.9140000000025,95.438,541.362,538.197,0.0
50177.0,STARLINK-3282,PAYLOAD,2022-04-30 06:00:00,15.08830228,0.0002483,53.2159,96.3437,35.2302,4.1734,0.00017392,2.48e-05,0.0,0 STARLINK-3282,1 50177U 21125X   22120.25001157  .00002480  00000-0  17392-3 0  9998,2 50177  53.2159  96.3437 0002483  35.2302   4.1734 15.08830228 23338,6917.91,95.438,541.493,538.058,0.0
50177.0,STARLINK-3282,PAYLOAD,2022-04-30 14:00:01,15.08852143,0.000239,53.2156,94.8463,34.3024,16.6808,-0.004087,-0.00064773,0.0,0 STARLINK-3282,1 50177U 21125X   22120.58334491 -.00064773  00000-0 -40870-2 0  9995,2 50177  53.2156  94.8463 0002390  34.3024  16.6808 15.08852143  3580,6917.843000000003,95.437,541.362,538.055,0.0
50177.0,STARLINK-3282,PAYLOAD,2022-04-30 22:00:00,15.08815653,0.0002255,53.2159,93.3492,37.7936,24.7784,0.0018414,0.0002912,0.0,0 STARLINK-3282,1 50177U 21125X   22120.91667824  .00029120  00000-0  18414-2 0  9995,2 50177  53.2159  93.3492 0002255  37.7936  24.7784 15.08815653  3575,6917.955,95.439,541.38,538.26,0.0
50177.0,STARLINK-3282,PAYLOAD,2022-05-01 14:00:01,15.08863722,0.0002385,53.2159,90.3572,34.6688,51.06100000000001,-0.0042045,-0.00066631,0.0,0 STARLINK-3282,1 50177U 21125X   22121.58334491 -.00066631  00000-0 -42045-2 0  9997,2 50177  53.2159  90.3572 0002385  34.6688  51.0610 15.08863722 23545,6917.808000000001,95.436,541.323,538.023,0.0
50177.0,STARLINK-3282,PAYLOAD,2022-05-01 22:00:01,15.08817643,0.0002274,53.2162,88.86,37.6063,59.7835,0.0014726,0.00023212,0.0,0 STARLINK-3282,1 50177U 21125X   22121.91668981  .00023212  00000-0  14726-2 0  9999,2 50177  53.2162  88.8600 0002274  37.6063  59.7835 15.08817643  3600,6917.949000000001,95.439,541.387,538.241,0.0
50177.0,STARLINK-3282,PAYLOAD,2022-05-02 06:00:00,15.088177300000002,0.0002504,53.2164,87.3657,34.956,73.9497,0.0011825999999999,0.00018572,0.0,0 STARLINK-3282,1 50177U 21125X   22122.25001157  .00018572  00000-0  11826-2 0  9994,2 50177  53.2164  87.3657 0002504  34.9560  73.9497 15.08817730 23641,6917.948,95.439,541.5459999999998,538.081,0.0
50177.0,STARLINK-3282,PAYLOAD,2022-05-02 14:00:01,15.08846476,0.000242,53.2165,85.8682,35.3814,85.0967,-0.0013253,-0.00021323,0.0,0 STARLINK-3282,1 50177U 21125X   22122.58334491 -.00021323  00000-0 -13253-2 0  9996,2 50177  53.2165  85.8682 0002420  35.3814  85.0967 15.08846476  3606,6917.861,95.437,541.4,538.0509999999998,0.0
50177.0,STARLINK-3282,PAYLOAD,2022-05-02 22:00:01,15.08853602,0.0002367,53.217,84.3712,38.7646,93.3642,-0.0012561,-0.00020232,0.0,0 STARLINK-3282,1 50177U 21125X   22122.91668981 -.00020232  00000-0 -12561-2 0  9996,2 50177  53.2170  84.3712 0002367  38.7646  93.3642 15.08853602  3566,6917.839,95.437,541.341,538.066,0.0
50177.0,STARLINK-3282,PAYLOAD,2022-05-03 04:00:00,15.08838583,0.0002525,53.2169,83.2506,35.6833,15.0893,-0.0021816,-0.00034842,0.0,0 STARLINK-3282,1 50177U 21125X   22123.16667824 -.00034842  00000-0 -21816-2 0  9994,2 50177  53.2169  83.2506 0002525  35.6833  15.0893 15.08838583 23778,6917.885,95.438,541.496,538.003,0.0
50177.0,STARLINK-3282,PAYLOAD,2022-05-03 14:00:01,15.08840979,0.0002427,53.2172,81.3793,35.5816,119.6659,-0.0011208,-0.00018083,0.0,0 STARLINK-3282,1 50177U 21125X   22123.58334491 -.00018083  00000-0 -11208-2 0  9994,2 50177  53.2172  81.3793 0002427  35.5816 119.6659 15.08840979 23841,6917.877,95.437,541.4209999999998,538.063,0.0
50177.0,STARLINK-3282,PAYLOAD,2022-05-03 22:00:00,15.08845275,0.0002394,53.2178,79.8826,39.4178,127.4154,0.00061031,9.44e-05,0.0,0 STARLINK-3282,1 50177U 21125X   22123.91667824  .00009440  00000-0  61031-3 0  9995,2 50177  53.2178  79.8826 0002394  39.4178 127.4154 15.08845275  3561,6917.864000000001,95.437,541.385,538.073,0.0
50177.0,STARLINK-3282,PAYLOAD,2022-05-04 06:00:02,15.08834791,0.0002604,53.2178,78.388,35.9406,142.5646,0.001903,0.00030125,0.0,0 STARLINK-3282,1 50177U 21125X   22124.25002315  .00030125  00000-0  19030-2 0  9996,2 50177  53.2178  78.3880 0002604  35.9406 142.5646 15.08834791 23943,6917.896,95.438,541.563,537.96,0.0
50177.0,STARLINK-3282,PAYLOAD,2022-05-04 14:00:01,15.08863351,0.0002407,53.2178,76.8904,36.5375,153.5113,-0.0028888,-0.00046002,0.0,0 STARLINK-3282,1 50177U 21125X   22124.58334491 -.00046002  00000-0 -28888-2 0  9999,2 50177  53.2178  76.8904 0002407  36.5375 153.5113 15.08863351  3602,6917.809,95.436,541.339,538.009,0.0
50177.0,STARLINK-3282,PAYLOAD,2022-05-04 20:00:01,15.08830616,0.0002325,53.2181,75.7674,39.217,69.6034,0.0024316,0.00038614,0.0,0 STARLINK-3282,1 50177U 21125X   22124.83335648  .00038614  00000-0  24316-2 0  9992,2 50177  53.2181  75.7674 0002325  39.2170  69.6034 15.08830616 24037,6917.909000000002,95.438,541.382,538.1659999999998,0.0
